CCSDS_OMM_VERS = 2.0
CREATION_DATE  = 
ORIGINATOR     = 

OBJECT_NAME    = ATLAS CENTAUR 2
OBJECT_ID      = 1963-047A
CENTER_NAME    = EARTH
REF_FRAME      = TEME
TIME_SYSTEM    = UTC
MEAN_ELEMENT_THEORY = SGP/SGP4

EPOCH          = 2026-02-06T03:45:48.009024
MEAN_MOTION    = 14.11980106
ECCENTRICITY   = .0548109
INCLINATION    = 30.3555
RA_OF_ASC_NODE = 11.8503
ARG_OF_PERICENTER = 162.4295
MEAN_ANOMALY   = 199.6090

EPHEMERIS_TYPE = 0
CLASSIFICATION_TYPE = U
NORAD_CAT_ID   = 694
ELEMENT_SET_NO = 999
REV_AT_EPOCH   = 12716
BSTAR          = .19854E-3
MEAN_MOTION_DOT = .1727E-4
MEAN_MOTION_DDOT = 0

CCSDS_OMM_VERS = 2.0
CREATION_DATE  = 
ORIGINATOR     = 

OBJECT_NAME    = THOR AGENA D R/B
OBJECT_ID      = 1964-002A
CENTER_NAME    = EARTH
REF_FRAME      = TEME
TIME_SYSTEM    = UTC
MEAN_ELEMENT_THEORY = SGP/SGP4

EPOCH          = 2026-02-06T01:18:03.672288
MEAN_MOTION    = 14.34000225
ECCENTRICITY   = .0032763
INCLINATION    = 99.1228
RA_OF_ASC_NODE = 48.6691
ARG_OF_PERICENTER = 352.3786
MEAN_ANOMALY   = 7.6895

EPHEMERIS_TYPE = 0
CLASSIFICATION_TYPE = U
NORAD_CAT_ID   = 733
ELEMENT_SET_NO = 999
REV_AT_EPOCH   = 23376
BSTAR          = .13666E-3
MEAN_MOTION_DOT = .335E-5
MEAN_MOTION_DDOT = 0

CCSDS_OMM_VERS = 2.0
CREATION_DATE  = 
ORIGINATOR     = 

OBJECT_NAME    = SL-3 R/B
OBJECT_ID      = 1964-053B
CENTER_NAME    = EARTH
REF_FRAME      = TEME
TIME_SYSTEM    = UTC
MEAN_ELEMENT_THEORY = SGP/SGP4

EPOCH          = 2026-02-06T01:47:56.861088
MEAN_MOTION    = 14.61334532
ECCENTRICITY   = .0078157
INCLINATION    = 65.0763
RA_OF_ASC_NODE = 63.9220
ARG_OF_PERICENTER = 302.2599
MEAN_ANOMALY   = 57.0943

EPHEMERIS_TYPE = 0
CLASSIFICATION_TYPE = U
NORAD_CAT_ID   = 877
ELEMENT_SET_NO = 999
REV_AT_EPOCH   = 26217
BSTAR          = .11546E-3
MEAN_MOTION_DOT = .471E-5
MEAN_MOTION_DDOT = 0

CCSDS_OMM_VERS = 2.0
CREATION_DATE  = 
ORIGINATOR     = 

OBJECT_NAME    = SL-8 R/B
OBJECT_ID      = 1967-045B
CENTER_NAME    = EARTH
REF_FRAME      = TEME
TIME_SYSTEM    = UTC
MEAN_ELEMENT_THEORY = SGP/SGP4

EPOCH          = 2026-02-06T00:26:39.348672
MEAN_MOTION    = 14.45591637
ECCENTRICITY   = .0062996
INCLINATION    = 74.0099
RA_OF_ASC_NODE = 47.2348
ARG_OF_PERICENTER = 61.5542
MEAN_ANOMALY   = 299.1943

EPHEMERIS_TYPE = 0
CLASSIFICATION_TYPE = U
NORAD_CAT_ID   = 2802
ELEMENT_SET_NO = 999
REV_AT_EPOCH   = 8444
BSTAR          = .10788E-3
MEAN_MOTION_DOT = .363E-5
MEAN_MOTION_DDOT = 0

CCSDS_OMM_VERS = 2.0
CREATION_DATE  = 
ORIGINATOR     = 

OBJECT_NAME    = SL-8 R/B
OBJECT_ID      = 1968-040B
CENTER_NAME    = EARTH
REF_FRAME      = TEME
TIME_SYSTEM    = UTC
MEAN_ELEMENT_THEORY = SGP/SGP4

EPOCH          = 2026-02-05T23:05:48.360192
MEAN_MOTION    = 15.03014269
ECCENTRICITY   = .00255
INCLINATION    = 74.0325
RA_OF_ASC_NODE = 18.5063
ARG_OF_PERICENTER = 211.6355
MEAN_ANOMALY   = 148.3302

EPHEMERIS_TYPE = 0
CLASSIFICATION_TYPE = U
NORAD_CAT_ID   = 3230
ELEMENT_SET_NO = 999
REV_AT_EPOCH   = 8524
BSTAR          = .44602E-3
MEAN_MOTION_DOT = .6009E-4
MEAN_MOTION_DDOT = 0

CCSDS_OMM_VERS = 2.0
CREATION_DATE  = 
ORIGINATOR     = 

OBJECT_NAME    = OAO 2
OBJECT_ID      = 1968-110A
CENTER_NAME    = EARTH
REF_FRAME      = TEME
TIME_SYSTEM    = UTC
MEAN_ELEMENT_THEORY = SGP/SGP4

EPOCH          = 2026-02-06T04:28:37.060320
MEAN_MOTION    = 14.47288338
ECCENTRICITY   = .0006019
INCLINATION    = 34.9935
RA_OF_ASC_NODE = 81.1080
ARG_OF_PERICENTER = 302.2637
MEAN_ANOMALY   = 57.7470

EPHEMERIS_TYPE = 0
CLASSIFICATION_TYPE = U
NORAD_CAT_ID   = 3597
ELEMENT_SET_NO = 999
REV_AT_EPOCH   = 1453
BSTAR          = .11313E-3
MEAN_MOTION_DOT = .401E-5
MEAN_MOTION_DDOT = 0

CCSDS_OMM_VERS = 2.0
CREATION_DATE  = 
ORIGINATOR     = 

OBJECT_NAME    = ISIS 1
OBJECT_ID      = 1969-009A
CENTER_NAME    = EARTH
REF_FRAME      = TEME
TIME_SYSTEM    = UTC
MEAN_ELEMENT_THEORY = SGP/SGP4

EPOCH          = 2026-02-05T20:30:58.760928
MEAN_MOTION    = 11.30400129
ECCENTRICITY   = .1707839
INCLINATION    = 88.4553
RA_OF_ASC_NODE = 158.7773
ARG_OF_PERICENTER = 153.3951
MEAN_ANOMALY   = 216.6111

EPHEMERIS_TYPE = 0
CLASSIFICATION_TYPE = U
NORAD_CAT_ID   = 3669
ELEMENT_SET_NO = 999
REV_AT_EPOCH   = 34493
BSTAR          = .31001E-3
MEAN_MOTION_DOT = .451E-5
MEAN_MOTION_DDOT = 0

CCSDS_OMM_VERS = 2.0
CREATION_DATE  = 
ORIGINATOR     = 

OBJECT_NAME    = SERT 2
OBJECT_ID      = 1970-009A
CENTER_NAME    = EARTH
REF_FRAME      = TEME
TIME_SYSTEM    = UTC
MEAN_ELEMENT_THEORY = SGP/SGP4

EPOCH          = 2026-02-05T19:29:56.513760
MEAN_MOTION    = 13.58726483
ECCENTRICITY   = .00040209
INCLINATION    = 99.2720
RA_OF_ASC_NODE = 341.6577
ARG_OF_PERICENTER = 243.5532
MEAN_ANOMALY   = 170.8918

EPHEMERIS_TYPE = 0
CLASSIFICATION_TYPE = U
NORAD_CAT_ID   = 4327
ELEMENT_SET_NO = 999
REV_AT_EPOCH   = 77556
BSTAR          = .12616595E-3
MEAN_MOTION_DOT = .51E-6
MEAN_MOTION_DDOT = 0

CCSDS_OMM_VERS = 2.0
CREATION_DATE  = 
ORIGINATOR     = 

OBJECT_NAME    = SL-3 R/B
OBJECT_ID      = 1971-028B
CENTER_NAME    = EARTH
REF_FRAME      = TEME
TIME_SYSTEM    = UTC
MEAN_ELEMENT_THEORY = SGP/SGP4

EPOCH          = 2026-02-06T02:14:29.588064
MEAN_MOTION    = 15.58652862
ECCENTRICITY   = .0017645
INCLINATION    = 81.2351
RA_OF_ASC_NODE = 90.9839
ARG_OF_PERICENTER = 45.6970
MEAN_ANOMALY   = 314.5725

EPHEMERIS_TYPE = 0
CLASSIFICATION_TYPE = U
NORAD_CAT_ID   = 5118
ELEMENT_SET_NO = 999
REV_AT_EPOCH   = 98374
BSTAR          = .52396E-3
MEAN_MOTION_DOT = .40672E-3
MEAN_MOTION_DDOT = 0

CCSDS_OMM_VERS = 2.0
CREATION_DATE  = 
ORIGINATOR     = 

OBJECT_NAME    = ASTEX 1
OBJECT_ID      = 1971-089A
CENTER_NAME    = EARTH
REF_FRAME      = TEME
TIME_SYSTEM    = UTC
MEAN_ELEMENT_THEORY = SGP/SGP4

EPOCH          = 2026-02-05T17:58:43.889376
MEAN_MOTION    = 14.50731772
ECCENTRICITY   = .00153719
INCLINATION    = 92.7153
RA_OF_ASC_NODE = 141.4255
ARG_OF_PERICENTER = 184.3221
MEAN_ANOMALY   = 175.7855

EPHEMERIS_TYPE = 0
CLASSIFICATION_TYPE = U
NORAD_CAT_ID   = 5560
ELEMENT_SET_NO = 999
REV_AT_EPOCH   = 85767
BSTAR          = .23993707E-3
MEAN_MOTION_DOT = .943E-5
MEAN_MOTION_DDOT = 0

CCSDS_OMM_VERS = 2.0
CREATION_DATE  = 
ORIGINATOR     = 

OBJECT_NAME    = SL-8 R/B
OBJECT_ID      = 1971-119B
CENTER_NAME    = EARTH
REF_FRAME      = TEME
TIME_SYSTEM    = UTC
MEAN_ELEMENT_THEORY = SGP/SGP4

EPOCH          = 2026-02-05T23:42:44.374176
MEAN_MOTION    = 14.36898277
ECCENTRICITY   = .0554132
INCLINATION    = 73.8851
RA_OF_ASC_NODE = 234.9348
ARG_OF_PERICENTER = 208.0677
MEAN_ANOMALY   = 148.9564

EPHEMERIS_TYPE = 0
CLASSIFICATION_TYPE = U
NORAD_CAT_ID   = 5730
ELEMENT_SET_NO = 999
REV_AT_EPOCH   = 65093
BSTAR          = .71206E-3
MEAN_MOTION_DOT = .13729E-3
MEAN_MOTION_DDOT = 0

CCSDS_OMM_VERS = 2.0
CREATION_DATE  = 
ORIGINATOR     = 

OBJECT_NAME    = OAO 3 (COPERNICUS)
OBJECT_ID      = 1972-065A
CENTER_NAME    = EARTH
REF_FRAME      = TEME
TIME_SYSTEM    = UTC
MEAN_ELEMENT_THEORY = SGP/SGP4

EPOCH          = 2026-02-06T04:51:32.047200
MEAN_MOTION    = 14.59969659
ECCENTRICITY   = .0007252
INCLINATION    = 35.0054
RA_OF_ASC_NODE = 116.7047
ARG_OF_PERICENTER = 264.4880
MEAN_ANOMALY   = 119.8402

EPHEMERIS_TYPE = 0
CLASSIFICATION_TYPE = U
NORAD_CAT_ID   = 6153
ELEMENT_SET_NO = 999
REV_AT_EPOCH   = 84159
BSTAR          = .12337E-3
MEAN_MOTION_DOT = .58E-5
MEAN_MOTION_DDOT = 0

