ATLAS CENTAUR 2         
1 00694U 63047A   26037.15680566  .00001727  00000+0  19854-3 0  9990
2 00694  30.3555  11.8503 0548109 162.4295 199.6090 14.11980106127168
THOR AGENA D R/B        
1 00733U 64002A   26037.05420917  .00000335  00000+0  13666-3 0  9996
2 00733  99.1228  48.6691 0032763 352.3786   7.6895 14.34000225233762
SL-3 R/B                
1 00877U 64053B   26037.07496367  .00000471  00000+0  11546-3 0  9991
2 00877  65.0763  63.9220 0078157 302.2599  57.0943 14.61334532262179
SL-8 R/B                
1 02802U 67045B   26037.01851098  .00000363  00000+0  10788-3 0  9992
2 02802  74.0099  47.2348 0062996  61.5542 299.1943 14.45591637 84448
SL-8 R/B                
1 03230U 68040B   26036.96236528  .00006009  00000+0  44602-3 0  9997
2 03230  74.0325  18.5063 0025500 211.6355 148.3302 15.03014269 85240
OAO 2                   
1 03597U 68110A   26037.18654005  .00000401  00000+0  11313-3 0  9993
2 03597  34.9935  81.1080 0006019 302.2637  57.7470 14.47288338 14537
ISIS 1                  
1 03669U 69009A   26036.85484677  .00000451  00000+0  31001-3 0  9991
2 03669  88.4553 158.7773 1707839 153.3951 216.6111 11.30400129344931
SERT 2                  
1 04327U 70009A   26036.81245965  .00000051  00000+0  12617-3 0  9994
2 04327  99.2720 341.6577 0004020 243.5532 170.8918 13.58726483775561
SL-3 R/B                
1 05118U 71028B   26037.09339801  .00040672  00000+0  52396-3 0  9990
2 05118  81.2351  90.9839 0017645  45.6970 314.5725 15.58652862983745
ASTEX 1                 
1 05560U 71089A   26036.74911909  .00000943  00000+0  23994-3 0  9993
2 05560  92.7153 141.4255 0015371 184.3221 175.7855 14.50731772857673
SL-8 R/B                
1 05730U 71119B   26036.98801359  .00013729  00000+0  71206-3 0  9994
2 05730  73.8851 234.9348 0554132 208.0677 148.9564 14.36898277650937
OAO 3 (COPERNICUS)      
1 06153U 72065A   26037.20245425  .00000580  00000+0  12337-3 0  9998
2 06153  35.0054 116.7047 0007252 264.4880 119.8402 14.59969659841593
